start=new Date('2021-10-16T00:00:00.000Z').valueOf();
sats=[{"REF_FRAME":"TEME","DECAY_DATE":null,"TLE_LINE1":"1 48285U 21036K   21288.73059415 -.00000528  00000-0 -16575-4 0  9999","OBJECT_NAME":"STARLINK-2548","COUNTRY_CODE":"US","SEMIMAJOR_AXIS":"6925.349","OBJECT_TYPE":"PAYLOAD","TIME_SYSTEM":"UTC","ARG_OF_PERICENTER":"104.2365","RA_OF_ASC_NODE":"91.0605","INCLINATION":"53.0493","MEAN_MOTION_DDOT":"0.0000000000000","PERIOD":"95.592","LAUNCH_DATE":"2021-04-29","GP_ID":"187279653","REV_AT_EPOCH":"2625","MEAN_ELEMENT_THEORY":"SGP4","MEAN_MOTION_DOT":"-0.00000528","OBJECT_ID":"2021-036K","MEAN_ANOMALY":"255.8796","ECCENTRICITY":"0.00015410","MEAN_MOTION":"15.06399850","CENTER_NAME":"EARTH","TLE_LINE2":"2 48285  53.0493  91.0605 0001541 104.2365 255.8796 15.06399850 26259","CLASSIFICATION_TYPE":"U","RCS_SIZE":"LARGE","SITE":"AFETR","FILE":"3165217","EPOCH":"2021-10-15T17:32:03.334560","BSTAR":"-0.00001657500000","PERIAPSIS":"546.147","ELEMENT_SET_NO":"999","NORAD_CAT_ID":"48285","EPHEMERIS_TYPE":"0","APOAPSIS":"548.281"},{"EPOCH":"2021-10-15T17:26:45.434400","SITE":"AFETR","FILE":"3165217","EPHEMERIS_TYPE":"0","APOAPSIS":"548.498","BSTAR":"0.00009026300000","NORAD_CAT_ID":"48286","PERIAPSIS":"545.958","ELEMENT_SET_NO":"999","MEAN_ANOMALY":"263.0191","ECCENTRICITY":"0.00018340","OBJECT_ID":"2021-036L","TLE_LINE2":"2 48286  53.0563  91.0538 0001834  97.1006 263.0191 15.06395270 26252","CLASSIFICATION_TYPE":"U","RCS_SIZE":"LARGE","MEAN_MOTION":"15.06395270","CENTER_NAME":"EARTH","REV_AT_EPOCH":"2625","MEAN_MOTION_DOT":"0.00001063","MEAN_ELEMENT_THEORY":"SGP4","GP_ID":"187280904","LAUNCH_DATE":"2021-04-29","PERIOD":"95.592","RA_OF_ASC_NODE":"91.0538","TIME_SYSTEM":"UTC","ARG_OF_PERICENTER":"97.1006","INCLINATION":"53.0563","MEAN_MOTION_DDOT":"0.0000000000000","COUNTRY_CODE":"US","REF_FRAME":"TEME","TLE_LINE1":"1 48286U 21036L   21288.72691475  .00001063  00000-0  90263-4 0  9996","OBJECT_NAME":"STARLINK-2547","DECAY_DATE":null,"OBJECT_TYPE":"PAYLOAD","SEMIMAJOR_AXIS":"6925.363"},{"LAUNCH_DATE":"2021-04-29","PERIOD":"95.592","RA_OF_ASC_NODE":"91.0688","TIME_SYSTEM":"UTC","ARG_OF_PERICENTER":"102.0406","MEAN_MOTION_DDOT":"0.0000000000000","INCLINATION":"53.0550","COUNTRY_CODE":"US","REF_FRAME":"TEME","DECAY_DATE":null,"TLE_LINE1":"1 48287U 21036M   21288.72322348  .00001864  00000-0  14399-3 0  9991","OBJECT_NAME":"STARLINK-2566","OBJECT_TYPE":"PAYLOAD","SEMIMAJOR_AXIS":"6925.335","EPOCH":"2021-10-15T17:21:26.508672","SITE":"AFETR","FILE":"3165217","EPHEMERIS_TYPE":"0","APOAPSIS":"548.289","BSTAR":"0.00014399000000","PERIAPSIS":"546.112","ELEMENT_SET_NO":"999","NORAD_CAT_ID":"48287","MEAN_ANOMALY":"258.0760","ECCENTRICITY":"0.00015720","OBJECT_ID":"2021-036M","TLE_LINE2":"2 48287  53.0550  91.0688 0001572 102.0406 258.0760 15.06404285 26257","CLASSIFICATION_TYPE":"U","RCS_SIZE":"LARGE","MEAN_MOTION":"15.06404285","CENTER_NAME":"EARTH","REV_AT_EPOCH":"2625","MEAN_MOTION_DOT":"0.00001864","MEAN_ELEMENT_THEORY":"SGP4","GP_ID":"187280655"},{"GP_ID":"187279403","REV_AT_EPOCH":"2625","MEAN_MOTION_DOT":"0.00000659","MEAN_ELEMENT_THEORY":"SGP4","ECCENTRICITY":"0.00014280","MEAN_ANOMALY":"261.1594","OBJECT_ID":"2021-036N","RCS_SIZE":"LARGE","TLE_LINE2":"2 48288  53.0551  91.0877 0001428  98.9556 261.1594 15.06403470 26253","CLASSIFICATION_TYPE":"U","CENTER_NAME":"EARTH","MEAN_MOTION":"15.06403470","EPOCH":"2021-10-15T17:16:08.505696","FILE":"3165217","SITE":"AFETR","APOAPSIS":"548.192","EPHEMERIS_TYPE":"0","NORAD_CAT_ID":"48288","PERIAPSIS":"546.214","ELEMENT_SET_NO":"999","BSTAR":"0.00006310400000","COUNTRY_CODE":"US","TLE_LINE1":"1 48288U 21036N   21288.71954289  .00000659  00000-0  63104-4 0  9996","DECAY_DATE":null,"OBJECT_NAME":"STARLINK-2562","REF_FRAME":"TEME","OBJECT_TYPE":"PAYLOAD","SEMIMAJOR_AXIS":"6925.338","RA_OF_ASC_NODE":"91.0877","ARG_OF_PERICENTER":"98.9556","TIME_SYSTEM":"UTC","INCLINATION":"53.0551","MEAN_MOTION_DDOT":"0.0000000000000","PERIOD":"95.592","LAUNCH_DATE":"2021-04-29"},{"GP_ID":"187280153","REV_AT_EPOCH":"2625","MEAN_MOTION_DOT":"0.00001114","MEAN_ELEMENT_THEORY":"SGP4","ECCENTRICITY":"0.00018300","MEAN_ANOMALY":"258.4437","OBJECT_ID":"2021-036P","TLE_LINE2":"2 48289  53.0545  91.1047 0001830 101.6757 258.4437 15.06392996 26254","CLASSIFICATION_TYPE":"U","RCS_SIZE":"LARGE","MEAN_MOTION":"15.06392996","CENTER_NAME":"EARTH","EPOCH":"2021-10-15T17:10:50.377440","SITE":"AFETR","FILE":"3165217","EPHEMERIS_TYPE":"0","APOAPSIS":"548.502","BSTAR":"0.00009369000000","PERIAPSIS":"545.968","NORAD_CAT_ID":"48289","ELEMENT_SET_NO":"999","COUNTRY_CODE":"US","REF_FRAME":"TEME","TLE_LINE1":"1 48289U 21036P   21288.71586085  .00001114  00000-0  93690-4 0  9992","DECAY_DATE":null,"OBJECT_NAME":"STARLINK-2545","OBJECT_TYPE":"PAYLOAD","SEMIMAJOR_AXIS":"6925.370","RA_OF_ASC_NODE":"91.1047","TIME_SYSTEM":"UTC","ARG_OF_PERICENTER":"101.6757","INCLINATION":"53.0545","MEAN_MOTION_DDOT":"0.0000000000000","PERIOD":"95.593","LAUNCH_DATE":"2021-04-29"},{"OBJECT_TYPE":"PAYLOAD","SEMIMAJOR_AXIS":"6925.387","COUNTRY_CODE":"US","TLE_LINE1":"1 48290U 21036Q   21288.71218449 -.00000368  00000-0 -58323-5 0  9997","OBJECT_NAME":"STARLINK-2540","DECAY_DATE":null,"REF_FRAME":"TEME","INCLINATION":"53.0549","MEAN_MOTION_DDOT":"0.0000000000000","RA_OF_ASC_NODE":"91.1405","ARG_OF_PERICENTER":"96.8631","TIME_SYSTEM":"UTC","PERIOD":"95.593","LAUNCH_DATE":"2021-04-29","GP_ID":"187280405","MEAN_MOTION_DOT":"-0.00000368","MEAN_ELEMENT_THEORY":"SGP4","REV_AT_EPOCH":"2625","RCS_SIZE":"LARGE","TLE_LINE2":"2 48290  53.0549  91.1405 0001514  96.8631 263.2530 15.06387325 26251","CLASSIFICATION_TYPE":"U","CENTER_NAME":"EARTH","MEAN_MOTION":"15.06387325","MEAN_ANOMALY":"263.2530","ECCENTRICITY":"0.00015140","OBJECT_ID":"2021-036Q","APOAPSIS":"548.301","EPHEMERIS_TYPE":"0","PERIAPSIS":"546.204","ELEMENT_SET_NO":"999","NORAD_CAT_ID":"48290","BSTAR":"-0.00000583230000","EPOCH":"2021-10-15T17:05:32.739936","FILE":"3165217","SITE":"AFETR"},{"BSTAR":"0.00010778000000","PERIAPSIS":"545.933","NORAD_CAT_ID":"48291","ELEMENT_SET_NO":"999","EPHEMERIS_TYPE":"0","APOAPSIS":"548.500","SITE":"AFETR","FILE":"3165217","EPOCH":"2021-10-15T18:35:45.147840","MEAN_MOTION":"15.06398987","CENTER_NAME":"EARTH","TLE_LINE2":"2 48291  53.0552  90.8495 0001853 101.6044 258.5153 15.06398987 26265","CLASSIFICATION_TYPE":"U","RCS_SIZE":"MEDIUM","OBJECT_ID":"2021-036R","MEAN_ANOMALY":"258.5153","ECCENTRICITY":"0.00018530","MEAN_ELEMENT_THEORY":"SGP4","MEAN_MOTION_DOT":"0.00001324","REV_AT_EPOCH":"2626","GP_ID":"187281155","LAUNCH_DATE":"2021-04-29","PERIOD":"95.592","INCLINATION":"53.0552","MEAN_MOTION_DDOT":"0.0000000000000","TIME_SYSTEM":"UTC","ARG_OF_PERICENTER":"101.6044","RA_OF_ASC_NODE":"90.8495","SEMIMAJOR_AXIS":"6925.352","OBJECT_TYPE":"PAYLOAD","REF_FRAME":"TEME","TLE_LINE1":"1 48291U 21036R   21288.77482810  .00001324  00000-0  10778-3 0  9990","DECAY_DATE":null,"OBJECT_NAME":"STARLINK-2555","COUNTRY_CODE":"US"},{"BSTAR":"-0.00001982700000","PERIAPSIS":"546.108","ELEMENT_SET_NO":"999","NORAD_CAT_ID":"48292","EPHEMERIS_TYPE":"0","APOAPSIS":"548.393","SITE":"AFETR","FILE":"3165217","EPOCH":"2021-10-15T18:29:06.779904","MEAN_MOTION":"15.06387862","CENTER_NAME":"EARTH","TLE_LINE2":"2 48292  53.0554  90.8658 0001650  92.4756 267.6422 15.06387862 26261","CLASSIFICATION_TYPE":"U","RCS_SIZE":"LARGE","OBJECT_ID":"2021-036S","MEAN_ANOMALY":"267.6422","ECCENTRICITY":"0.00016500","MEAN_ELEMENT_THEORY":"SGP4","MEAN_MOTION_DOT":"-0.00000577","REV_AT_EPOCH":"2626","GP_ID":"187279903","LAUNCH_DATE":"2021-04-29","PERIOD":"95.593","INCLINATION":"53.0554","MEAN_MOTION_DDOT":"0.0000000000000","TIME_SYSTEM":"UTC","ARG_OF_PERICENTER":"92.4756","RA_OF_ASC_NODE":"90.8658","SEMIMAJOR_AXIS":"6925.386","OBJECT_TYPE":"PAYLOAD","REF_FRAME":"TEME","TLE_LINE1":"1 48292U 21036S   21288.77021736 -.00000577  00000-0 -19827-4 0  9993","OBJECT_NAME":"STARLINK-2542","DECAY_DATE":null,"COUNTRY_CODE":"US"},{"ARG_OF_PERICENTER":"104.4439","TIME_SYSTEM":"UTC","RA_OF_ASC_NODE":"90.8769","INCLINATION":"53.0548","MEAN_MOTION_DDOT":"0.0000000000000","TLE_LINE1":"1 48293U 21036T   21288.76747377 -.00001092  00000-0 -54431-4 0  9992","OBJECT_NAME":"STARLINK-2550","DECAY_DATE":null,"REF_FRAME":"TEME","COUNTRY_CODE":"US","SEMIMAJOR_AXIS":"6925.398","OBJECT_TYPE":"PAYLOAD","LAUNCH_DATE":"2021-04-29","PERIOD":"95.593","REV_AT_EPOCH":"2626","MEAN_ELEMENT_THEORY":"SGP4","MEAN_MOTION_DOT":"-0.00001092","GP_ID":"187279654","FILE":"3165217","SITE":"AFETR","EPOCH":"2021-10-15T18:25:09.733728","PERIAPSIS":"546.299","NORAD_CAT_ID":"48293","ELEMENT_SET_NO":"999","BSTAR":"-0.00005443100000","APOAPSIS":"548.228","EPHEMERIS_TYPE":"0","OBJECT_ID":"2021-036T","ECCENTRICITY":"0.00013930","MEAN_ANOMALY":"255.6704","CENTER_NAME":"EARTH","MEAN_MOTION":"15.06383744","RCS_SIZE":"LARGE","TLE_LINE2":"2 48293  53.0548  90.8769 0001393 104.4439 255.6704 15.06383744 26269","CLASSIFICATION_TYPE":"U"},{"PERIOD":"95.593","LAUNCH_DATE":"2021-04-29","OBJECT_TYPE":"PAYLOAD","SEMIMAJOR_AXIS":"6925.376","COUNTRY_CODE":"US","TLE_LINE1":"1 48294U 21036U   21288.76378240 -.00000453  00000-0 -11505-4 0  9997","OBJECT_NAME":"STARLINK-2533","DECAY_DATE":null,"REF_FRAME":"TEME","MEAN_MOTION_DDOT":"0.0000000000000","INCLINATION":"53.0573","RA_OF_ASC_NODE":"90.9056","ARG_OF_PERICENTER":"85.1240","TIME_SYSTEM":"UTC","RCS_SIZE":"LARGE","TLE_LINE2":"2 48294  53.0573  90.9056 0001426  85.1240 274.9912 15.06391023 26264","CLASSIFICATION_TYPE":"U","CENTER_NAME":"EARTH","MEAN_MOTION":"15.06391023","ECCENTRICITY":"0.00014260","MEAN_ANOMALY":"274.9912","OBJECT_ID":"2021-036U","APOAPSIS":"548.229","EPHEMERIS_TYPE":"0","PERIAPSIS":"546.254","ELEMENT_SET_NO":"999","NORAD_CAT_ID":"48294","BSTAR":"-0.00001150500000","EPOCH":"2021-10-15T18:19:50.799360","FILE":"3165217","SITE":"AFETR","GP_ID":"187280905","MEAN_MOTION_DOT":"-0.00000453","MEAN_ELEMENT_THEORY":"SGP4","REV_AT_EPOCH":"2626"}];
